{"type": "FeatureCollection", "features": [ {"type": "Feature", "properties": {"norad_id": 30320, "name": "FENGYUN 1C DEB", "group": "fengyun-1c-debris", "lat": 35.14411084138459, "lon": -133.00723649168978, "alt_km": 956.5715768093687, "timestamp": "2025-12-07T03:52:32.772613+00:00", "meta": {"OBJECT_NAME": "FENGYUN 1C DEB", "OBJECT_ID": "1999-025AAH", "EPOCH": "2025-12-06T15:53:35.627424", "MEAN_MOTION": 13.98552512, "ECCENTRICITY": 0.0085347, "INCLINATION": 99.189, "RA_OF_ASC_NODE": 39.9496, "ARG_OF_PERICENTER": 311.4467, "MEAN_ANOMALY": 200.6708, "EPHEMERIS_TYPE": 0, "CLASSIFICATION_TYPE": "U", "NORAD_CAT_ID": 30320, "ELEMENT_SET_NO": 999, "REV_AT_EPOCH": 96322, "BSTAR": 0.00017967462, "MEAN_MOTION_DOT": 2.2e-06, "MEAN_MOTION_DDOT": 0}, "tle": {"line1": "1 30320U 99025AAH 25340.66221791  .00000220  00000+0  17967-3 0  9997", "line2": "2 30320  99.1890  39.9496 0085347 311.4467 200.6708 13.98552512963225"}}, "geometry": {"type": "Point", "coordinates": [-133.00723649168978, 35.14411084138459]}}, {"type": "Feature", "properties": {"norad_id": 30321, "name": "FENGYUN 1C DEB", "group": "fengyun-1c-debris", "lat": -14.029810624480321, "lon": 158.16807374572488, "alt_km": 818.9005951463687, "timestamp": "2025-12-07T03:52:32.772623+00:00", "meta": {"OBJECT_NAME": "FENGYUN 1C DEB", "OBJECT_ID": "1999-025AAJ", "EPOCH": "2025-12-06T06:41:22.003296", "MEAN_MOTION": 14.1662831, "ECCENTRICITY": 0.00598378, "INCLINATION": 98.6559, "RA_OF_ASC_NODE": 339.4909, "ARG_OF_PERICENTER": 255.6273, "MEAN_ANOMALY": 119.5947, "EPHEMERIS_TYPE": 0, "CLASSIFICATION_TYPE": "U", "NORAD_CAT_ID": 30321, "ELEMENT_SET_NO": 999, "REV_AT_EPOCH": 97452, "BSTAR": 0.00058353504, "MEAN_MOTION_DOT": 1.142e-05, "MEAN_MOTION_DDOT": 0}, "tle": {"line1": "1 30321U 99025AAJ 25340.27872689  .00001142  00000+0  58354-3 0  9992", "line2": "2 30321  98.6559 339.4909 0059837 255.6273 119.5947 14.16628310974527"}}, "geometry": {"type": "Point", "coordinates": [158.16807374572488, -14.029810624480321]}}, {"type": "Feature", "properties": {"norad_id": 30322, "name": "FENGYUN 1C DEB", "group": "fengyun-1c-debris", "lat": 57.61640888566107, "lon": -174.21826504270854, "alt_km": 946.4297498069855, "timestamp": "2025-12-07T03:52:32.772634+00:00", "meta": {"OBJECT_NAME": "FENGYUN 1C DEB", "OBJECT_ID": "1999-025AAK", "EPOCH": "2025-12-06T13:55:54.376608", "MEAN_MOTION": 14.06055655, "ECCENTRICITY": 0.01270421, "INCLINATION": 98.3974, "RA_OF_ASC_NODE": 198.711, "ARG_OF_PERICENTER": 270.7645, "MEAN_ANOMALY": 87.897, "EPHEMERIS_TYPE": 0, "CLASSIFICATION_TYPE": "U", "NORAD_CAT_ID": 30322, "ELEMENT_SET_NO": 999, "REV_AT_EPOCH": 96113, "BSTAR": 0.0024795171, "MEAN_MOTION_DOT": 4.337e-05, "MEAN_MOTION_DDOT": 0}, "tle": {"line1": "1 30322U 99025AAK 25340.58049047  .00004337  00000+0  24795-2 0  9991", "line2": "2 30322  98.3974 198.7110 0127042 270.7645  87.8970 14.06055655961132"}}, "geometry": {"type": "Point", "coordinates": [-174.21826504270854, 57.61640888566107]}}, {"type": "Feature", "properties": {"norad_id": 30325, "name": "FENGYUN 1C DEB", "group": "fengyun-1c-debris", "lat": 26.697575760994173, "lon": -3.749424759672544, "alt_km": 866.3431281454232, "timestamp": "2025-12-07T03:52:32.772644+00:00", "meta": {"OBJECT_NAME": "FENGYUN 1C DEB", "OBJECT_ID": "1999-025AAL", "EPOCH": "2025-12-06T12:24:37.117728", "MEAN_MOTION": 14.09100958, "ECCENTRICITY": 0.00152028, "INCLINATION": 98.7334, "RA_OF_ASC_NODE": 0.0596, "ARG_OF_PERICENTER": 272.0475, "MEAN_ANOMALY": 87.8954, "EPHEMERIS_TYPE": 0, "CLASSIFICATION_TYPE": "U", "NORAD_CAT_ID": 30325, "ELEMENT_SET_NO": 999, "REV_AT_EPOCH": 96928, "BSTAR": 0.00011288374, "MEAN_MOTION_DOT": 1.53e-06, "MEAN_MOTION_DDOT": 0}, "tle": {"line1": "1 30325U 99025AAL 25340.51709627  .00000153  00000+0  11288-3 0  9990", "line2": "2 30325  98.7334   0.0596 0015202 272.0475  87.8954 14.09100958969288"}}, "geometry": {"type": "Point", "coordinates": [-3.749424759672544, 26.697575760994173]}}, {"type": "Feature", "properties": {"norad_id": 30326, "name": "FENGYUN 1C DEB", "group": "fengyun-1c-debris", "lat": 64.62159138074901, "lon": -149.8238434227568, "alt_km": 840.1804582778159, "timestamp": "2025-12-07T03:52:32.772655+00:00", "meta": {"OBJECT_NAME": "FENGYUN 1C DEB", "OBJECT_ID": "1999-025AAM", "EPOCH": "2025-12-06T15:26:02.652000", "MEAN_MOTION": 13.85470678, "ECCENTRICITY": 0.01425431, "INCLINATION": 98.6544, "RA_OF_ASC_NODE": 228.4242, "ARG_OF_PERICENTER": 47.0955, "MEAN_ANOMALY": 314.2065, "EPHEMERIS_TYPE": 0, "CLASSIFICATION_TYPE": "U", "NORAD_CAT_ID": 30326, "ELEMENT_SET_NO": 999, "REV_AT_EPOCH": 95371, "BSTAR": 0.00032028749, "MEAN_MOTION_DOT": 3.56e-06, "MEAN_MOTION_DDOT": 0}, "tle": {"line1": "1 30326U 99025AAM 25340.64308625  .00000356  00000+0  32029-3 0  9999", "line2": "2 30326  98.6544 228.4242 0142543  47.0955 314.2065 13.85470678953710"}}, "geometry": {"type": "Point", "coordinates": [-149.8238434227568, 64.62159138074901]}}, {"type": "Feature", "properties": {"norad_id": 30327, "name": "FENGYUN 1C DEB", "group": "fengyun-1c-debris", "lat": 4.80921932237302, "lon": -124.97476445054843, "alt_km": 910.2007340657183, "timestamp": "2025-12-07T03:52:32.772665+00:00", "meta": {"OBJECT_NAME": "FENGYUN 1C DEB", "OBJECT_ID": "1999-025AAN", "EPOCH": "2025-12-06T16:08:17.241792", "MEAN_MOTION": 14.17923395, "ECCENTRICITY": 0.01166185, "INCLINATION": 98.4438, "RA_OF_ASC_NODE": 235.2761, "ARG_OF_PERICENTER": 160.6443, "MEAN_ANOMALY": 229.8658, "EPHEMERIS_TYPE": 0, "CLASSIFICATION_TYPE": "U", "NORAD_CAT_ID": 30327, "ELEMENT_SET_NO": 999, "REV_AT_EPOCH": 96357, "BSTAR": 0.0026407262, "MEAN_MOTION_DOT": 5.738e-05, "MEAN_MOTION_DDOT": 0}, "tle": {"line1": "1 30327U 99025AAN 25340.67242178  .00005738  00000+0  26407-2 0  9994", "line2": "2 30327  98.4438 235.2761 0116618 160.6443 229.8658 14.17923395963570"}}, "geometry": {"type": "Point", "coordinates": [-124.97476445054843, 4.80921932237302]}}, {"type": "Feature", "properties": {"norad_id": 30328, "name": "FENGYUN 1C DEB", "group": "fengyun-1c-debris", "lat": -81.26767188609323, "lon": 75.89525051296191, "alt_km": 859.1916877649655, "timestamp": "2025-12-07T03:52:32.772676+00:00", "meta": {"OBJECT_NAME": "FENGYUN 1C DEB", "OBJECT_ID": "1999-025AAP", "EPOCH": "2025-12-05T19:08:56.893344", "MEAN_MOTION": 14.12468452, "ECCENTRICITY": 0.00054122, "INCLINATION": 98.6865, "RA_OF_ASC_NODE": 350.1309, "ARG_OF_PERICENTER": 170.9896, "MEAN_ANOMALY": 9.8731, "EPHEMERIS_TYPE": 0, "CLASSIFICATION_TYPE": "U", "NORAD_CAT_ID": 30328, "ELEMENT_SET_NO": 999, "REV_AT_EPOCH": 97166, "BSTAR": 0.00023169653, "MEAN_MOTION_DOT": 3.85e-06, "MEAN_MOTION_DDOT": 0}, "tle": {"line1": "1 30328U 99025AAP 25339.79788071  .00000385  00000+0  23170-3 0  9991", "line2": "2 30328  98.6865 350.1309 0005412 170.9896   9.8731 14.12468452971667"}}, "geometry": {"type": "Point", "coordinates": [75.89525051296191, -81.26767188609323]}}, {"type": "Feature", "properties": {"norad_id": 30329, "name": "FENGYUN 1C DEB", "group": "fengyun-1c-debris", "lat": 57.6425067986009, "lon": 95.51256551878032, "alt_km": 898.7383775039916, "timestamp": "2025-12-07T03:52:32.772711+00:00", "meta": {"OBJECT_NAME": "FENGYUN 1C DEB", "OBJECT_ID": "1999-025AAQ", "EPOCH": "2025-12-06T12:33:19.747872", "MEAN_MOTION": 13.86731201, "ECCENTRICITY": 0.01423637, "INCLINATION": 99.2615, "RA_OF_ASC_NODE": 259.9569, "ARG_OF_PERICENTER": 52.0954, "MEAN_ANOMALY": 122.3992, "EPHEMERIS_TYPE": 0, "CLASSIFICATION_TYPE": "U", "NORAD_CAT_ID": 30329, "ELEMENT_SET_NO": 999, "REV_AT_EPOCH": 95324, "BSTAR": 0.00076165837, "MEAN_MOTION_DOT": 9.18e-06, "MEAN_MOTION_DDOT": 0}, "tle": {"line1": "1 30329U 99025AAQ 25340.52314523  .00000918  00000+0  76166-3 0  9997", "line2": "2 30329  99.2615 259.9569 0142363  52.0954 122.3992 13.86731201953243"}}, "geometry": {"type": "Point", "coordinates": [95.51256551878032, 57.6425067986009]}}, {"type": "Feature", "properties": {"norad_id": 30330, "name": "FENGYUN 1C DEB", "group": "fengyun-1c-debris", "lat": -68.70213769057382, "lon": 130.17744933398401, "alt_km": 875.1761844469811, "timestamp": "2025-12-07T03:52:32.772723+00:00", "meta": {"OBJECT_NAME": "FENGYUN 1C DEB", "OBJECT_ID": "1999-025AAR", "EPOCH": "2025-12-05T23:08:59.114976", "MEAN_MOTION": 13.82029694, "ECCENTRICITY": 0.01875789, "INCLINATION": 98.8852, "RA_OF_ASC_NODE": 332.7058, "ARG_OF_PERICENTER": 203.07, "MEAN_ANOMALY": 213.9856, "EPHEMERIS_TYPE": 0, "CLASSIFICATION_TYPE": "U", "NORAD_CAT_ID": 30330, "ELEMENT_SET_NO": 999, "REV_AT_EPOCH": 94564, "BSTAR": 0.0019537738, "MEAN_MOTION_DOT": 2.361e-05, "MEAN_MOTION_DDOT": 0}, "tle": {"line1": "1 30330U 99025AAR 25339.96457309  .00002361  00000+0  19538-2 0  9998", "line2": "2 30330  98.8852 332.7058 0187578 203.0700 213.9856 13.82029694945643"}}, "geometry": {"type": "Point", "coordinates": [130.17744933398401, -68.70213769057382]}}, {"type": "Feature", "properties": {"norad_id": 30331, "name": "FENGYUN 1C DEB", "group": "fengyun-1c-debris", "lat": 17.015909754128202, "lon": -161.3589464613576, "alt_km": 954.9178347158859, "timestamp": "2025-12-07T03:52:32.772733+00:00", "meta": {"OBJECT_NAME": "FENGYUN 1C DEB", "OBJECT_ID": "1999-025AAS", "EPOCH": "2025-12-06T14:04:51.217824", "MEAN_MOTION": 13.97819883, "ECCENTRICITY": 0.00968079, "INCLINATION": 98.9577, "RA_OF_ASC_NODE": 15.3136, "ARG_OF_PERICENTER": 24.9497, "MEAN_ANOMALY": 126.1531, "EPHEMERIS_TYPE": 0, "CLASSIFICATION_TYPE": "U", "NORAD_CAT_ID": 30331, "ELEMENT_SET_NO": 999, "REV_AT_EPOCH": 96033, "BSTAR": 0.0006677173, "MEAN_MOTION_DOT": 9.4e-06, "MEAN_MOTION_DDOT": 0}, "tle": {"line1": "1 30331U 99025AAS 25340.58670391  .00000940  00000+0  66772-3 0  9991", "line2": "2 30331  98.9577  15.3136 0096807  24.9497 126.1531 13.97819883960338"}}, "geometry": {"type": "Point", "coordinates": [-161.3589464613576, 17.015909754128202]}}]}